{"type": "FeatureCollection", "features": [ {"type": "Feature", "properties": {"norad_id": 66656, "name": "2025-274G", "group": "last-30-days", "lat": 71.44930320814659, "lon": -95.65151235348326, "alt_km": 589.5491716351789, "timestamp": "2025-12-27T07:26:23.944510+00:00", "meta": {"OBJECT_NAME": "2025-274G", "OBJECT_ID": "2025-274G", "EPOCH": "2025-12-26T18:14:21.774336", "MEAN_MOTION": 14.92357214, "ECCENTRICITY": 0.00130293, "INCLINATION": 97.7403, "RA_OF_ASC_NODE": 287.7186, "ARG_OF_PERICENTER": 205.1817, "MEAN_ANOMALY": 154.8769, "EPHEMERIS_TYPE": 0, "CLASSIFICATION_TYPE": "U", "NORAD_CAT_ID": 66656, "ELEMENT_SET_NO": 999, "REV_AT_EPOCH": 449, "BSTAR": 0.00034998083, "MEAN_MOTION_DOT": 3.529e-05, "MEAN_MOTION_DDOT": 0}, "tle": {"line1": "1 66656U 25274G   25360.75997424  .00003529  00000+0  34998-3 0  9996", "line2": "2 66656  97.7403 287.7186 0013029 205.1817 154.8769 14.92357214  4494"}}, "geometry": {"type": "Point", "coordinates": [-95.65151235348326, 71.44930320814659]}}, {"type": "Feature", "properties": {"norad_id": 66657, "name": "SPIRONE", "group": "last-30-days", "lat": 81.75219575773546, "lon": 178.03102978330514, "alt_km": 587.2276870282521, "timestamp": "2025-12-27T07:26:23.944521+00:00", "meta": {"OBJECT_NAME": "SPIRONE", "OBJECT_ID": "2025-274H", "EPOCH": "2025-12-26T18:09:10.152000", "MEAN_MOTION": 14.92536223, "ECCENTRICITY": 0.00109736, "INCLINATION": 97.7399, "RA_OF_ASC_NODE": 287.7226, "ARG_OF_PERICENTER": 222.2811, "MEAN_ANOMALY": 137.7564, "EPHEMERIS_TYPE": 0, "CLASSIFICATION_TYPE": "U", "NORAD_CAT_ID": 66657, "ELEMENT_SET_NO": 999, "REV_AT_EPOCH": 449, "BSTAR": 0.00037802358, "MEAN_MOTION_DOT": 3.832e-05, "MEAN_MOTION_DDOT": 0}, "tle": {"line1": "1 66657U 25274H   25360.75636750  .00003832  00000+0  37802-3 0  9993", "line2": "2 66657  97.7399 287.7226 0010973 222.2811 137.7564 14.92536223  4495"}}, "geometry": {"type": "Point", "coordinates": [178.03102978330514, 81.75219575773546]}}, {"type": "Feature", "properties": {"norad_id": 66658, "name": "2025-274J", "group": "last-30-days", "lat": 66.76869065274934, "lon": 126.74796076268794, "alt_km": 585.8901912353504, "timestamp": "2025-12-27T07:26:23.944540+00:00", "meta": {"OBJECT_NAME": "2025-274J", "OBJECT_ID": "2025-274J", "EPOCH": "2025-12-26T18:04:08.481216", "MEAN_MOTION": 14.92721317, "ECCENTRICITY": 0.00114642, "INCLINATION": 97.74, "RA_OF_ASC_NODE": 287.7274, "ARG_OF_PERICENTER": 225.5118, "MEAN_ANOMALY": 134.5165, "EPHEMERIS_TYPE": 0, "CLASSIFICATION_TYPE": "U", "NORAD_CAT_ID": 66658, "ELEMENT_SET_NO": 999, "REV_AT_EPOCH": 449, "BSTAR": 0.00054422256, "MEAN_MOTION_DOT": 5.569e-05, "MEAN_MOTION_DDOT": 0}, "tle": {"line1": "1 66658U 25274J   25360.75287594  .00005569  00000+0  54422-3 0  9998", "line2": "2 66658  97.7400 287.7274 0011464 225.5118 134.5165 14.92721317  4496"}}, "geometry": {"type": "Point", "coordinates": [126.74796076268794, 66.76869065274934]}}, {"type": "Feature", "properties": {"norad_id": 66659, "name": "JACK K", "group": "last-30-days", "lat": 47.25091836419349, "lon": 116.74593795030336, "alt_km": 585.3221026564606, "timestamp": "2025-12-27T07:26:23.944550+00:00", "meta": {"OBJECT_NAME": "JACK K", "OBJECT_ID": "2025-274K", "EPOCH": "2025-12-26T17:58:48.840096", "MEAN_MOTION": 14.92886476, "ECCENTRICITY": 0.00122459, "INCLINATION": 97.7403, "RA_OF_ASC_NODE": 287.7329, "ARG_OF_PERICENTER": 227.6944, "MEAN_ANOMALY": 132.3238, "EPHEMERIS_TYPE": 0, "CLASSIFICATION_TYPE": "U", "NORAD_CAT_ID": 66659, "ELEMENT_SET_NO": 999, "REV_AT_EPOCH": 449, "BSTAR": 0.00034058623, "MEAN_MOTION_DOT": 3.478e-05, "MEAN_MOTION_DDOT": 0}, "tle": {"line1": "1 66659U 25274K   25360.74917639  .00003478  00000+0  34059-3 0  9999", "line2": "2 66659  97.7403 287.7329 0012245 227.6944 132.3238 14.92886476  4494"}}, "geometry": {"type": "Point", "coordinates": [116.74593795030336, 47.25091836419349]}}, {"type": "Feature", "properties": {"norad_id": 66660, "name": "K-HERO", "group": "last-30-days", "lat": 30.943729742114552, "lon": 112.97046946442745, "alt_km": 584.9445237643195, "timestamp": "2025-12-27T07:26:23.944560+00:00", "meta": {"OBJECT_NAME": "K-HERO", "OBJECT_ID": "2025-274L", "EPOCH": "2025-12-26T17:54:27.478368", "MEAN_MOTION": 14.93036689, "ECCENTRICITY": 0.00128683, "INCLINATION": 97.7404, "RA_OF_ASC_NODE": 287.7384, "ARG_OF_PERICENTER": 228.4819, "MEAN_ANOMALY": 131.5297, "EPHEMERIS_TYPE": 0, "CLASSIFICATION_TYPE": "U", "NORAD_CAT_ID": 66660, "ELEMENT_SET_NO": 999, "REV_AT_EPOCH": 449, "BSTAR": 0.00032159571, "MEAN_MOTION_DOT": 3.294e-05, "MEAN_MOTION_DDOT": 0}, "tle": {"line1": "1 66660U 25274L   25360.74615137  .00003294  00000+0  32160-3 0  9996", "line2": "2 66660  97.7404 287.7384 0012868 228.4819 131.5297 14.93036689  4499"}}, "geometry": {"type": "Point", "coordinates": [112.97046946442745, 30.943729742114552]}}, {"type": "Feature", "properties": {"norad_id": 66661, "name": "SNUGLITE-III", "group": "last-30-days", "lat": 15.446488138514551, "lon": 110.45235812581927, "alt_km": 584.730997364175, "timestamp": "2025-12-27T07:26:23.944570+00:00", "meta": {"OBJECT_NAME": "SNUGLITE-III", "OBJECT_ID": "2025-274M", "EPOCH": "2025-12-26T17:50:19.973472", "MEAN_MOTION": 14.9316814, "ECCENTRICITY": 0.00134933, "INCLINATION": 97.7402, "RA_OF_ASC_NODE": 287.7409, "ARG_OF_PERICENTER": 230.0492, "MEAN_ANOMALY": 129.9543, "EPHEMERIS_TYPE": 0, "CLASSIFICATION_TYPE": "U", "NORAD_CAT_ID": 66661, "ELEMENT_SET_NO": 999, "REV_AT_EPOCH": 449, "BSTAR": 0.00029940113, "MEAN_MOTION_DOT": 3.074e-05, "MEAN_MOTION_DDOT": 0}, "tle": {"line1": "1 66661U 25274M   25360.74328673  .00003074  00000+0  29940-3 0  9991", "line2": "2 66661  97.7402 287.7409 0013493 230.0492 129.9543 14.93168140  4490"}}, "geometry": {"type": "Point", "coordinates": [110.45235812581927, 15.446488138514551]}}, {"type": "Feature", "properties": {"norad_id": 66662, "name": "2025-274N", "group": "last-30-days", "lat": 9.257711986601933, "lon": 109.57208701232373, "alt_km": 584.3902274309967, "timestamp": "2025-12-27T07:26:23.944582+00:00", "meta": {"OBJECT_NAME": "2025-274N", "OBJECT_ID": "2025-274N", "EPOCH": "2025-12-26T19:25:11.144928", "MEAN_MOTION": 14.93225238, "ECCENTRICITY": 0.00139327, "INCLINATION": 97.7402, "RA_OF_ASC_NODE": 287.8089, "ARG_OF_PERICENTER": 229.5594, "MEAN_ANOMALY": 130.4411, "EPHEMERIS_TYPE": 0, "CLASSIFICATION_TYPE": "U", "NORAD_CAT_ID": 66662, "ELEMENT_SET_NO": 999, "REV_AT_EPOCH": 450, "BSTAR": 0.00031074981, "MEAN_MOTION_DOT": 3.197e-05, "MEAN_MOTION_DDOT": 0}, "tle": {"line1": "1 66662U 25274N   25360.80915677  .00003197  00000+0  31075-3 0  9993", "line2": "2 66662  97.7402 287.8089 0013932 229.5594 130.4411 14.93225238  4505"}}, "geometry": {"type": "Point", "coordinates": [109.57208701232373, 9.257711986601933]}}, {"type": "Feature", "properties": {"norad_id": 66664, "name": "SOYUZ-MS 28", "group": "last-30-days", "lat": 6.60403044183715, "lon": 75.5791669191103, "alt_km": 415.84172577614663, "timestamp": "2025-12-27T07:26:23.944593+00:00", "meta": {"OBJECT_NAME": "SOYUZ-MS 28", "OBJECT_ID": "2025-275A", "EPOCH": "2025-12-26T20:34:16.428576", "MEAN_MOTION": 15.49855582, "ECCENTRICITY": 0.00032301, "INCLINATION": 51.6319, "RA_OF_ASC_NODE": 72.5609, "ARG_OF_PERICENTER": 307.0606, "MEAN_ANOMALY": 53.0087, "EPHEMERIS_TYPE": 0, "CLASSIFICATION_TYPE": "U", "NORAD_CAT_ID": 66664, "ELEMENT_SET_NO": 999, "REV_AT_EPOCH": 128, "BSTAR": 0.00027091986, "MEAN_MOTION_DOT": 0.00014958, "MEAN_MOTION_DDOT": 0}, "tle": {"line1": "1 66664U 25275A   25360.85713459  .00014958  00000+0  27092-3 0  9996", "line2": "2 66664  51.6319  72.5609 0003230 307.0606  53.0087 15.49855582  1280"}}, "geometry": {"type": "Point", "coordinates": [75.5791669191103, 6.60403044183715]}}, {"type": "Feature", "properties": {"norad_id": 66666, "name": "FORMOSAT-8A", "group": "last-30-days", "lat": 48.403349502399735, "lon": 64.31802552736225, "alt_km": 563.3052013769457, "timestamp": "2025-12-27T07:26:23.944604+00:00", "meta": {"OBJECT_NAME": "FORMOSAT-8A", "OBJECT_ID": "2025-276A", "EPOCH": "2025-12-26T21:37:07.025664", "MEAN_MOTION": 15.00370343, "ECCENTRICITY": 0.00041189, "INCLINATION": 97.6576, "RA_OF_ASC_NODE": 72.6324, "ARG_OF_PERICENTER": 181.331, "MEAN_ANOMALY": 178.7904, "EPHEMERIS_TYPE": 0, "CLASSIFICATION_TYPE": "U", "NORAD_CAT_ID": 66666, "ELEMENT_SET_NO": 999, "REV_AT_EPOCH": 421, "BSTAR": 0.00036301063, "MEAN_MOTION_DOT": 4.5e-05, "MEAN_MOTION_DDOT": 0}, "tle": {"line1": "1 66666U 25276A   25360.90077576  .00004500  00000+0  36301-3 0  9993", "line2": "2 66666  97.6576  72.6324 0004118 181.3310 178.7904 15.00370343  4216"}}, "geometry": {"type": "Point", "coordinates": [64.31802552736225, 48.403349502399735]}}, {"type": "Feature", "properties": {"norad_id": 66667, "name": "PELICAN-5", "group": "last-30-days", "lat": 11.450486480363232, "lon": 71.31532302041957, "alt_km": 516.1884502605617, "timestamp": "2025-12-27T07:26:23.944619+00:00", "meta": {"OBJECT_NAME": "PELICAN-5", "OBJECT_ID": "2025-276B", "EPOCH": "2025-12-26T21:53:40.879680", "MEAN_MOTION": 15.17628126, "ECCENTRICITY": 0.00024938, "INCLINATION": 97.4406, "RA_OF_ASC_NODE": 72.4414, "ARG_OF_PERICENTER": 196.5026, "MEAN_ANOMALY": 163.6127, "EPHEMERIS_TYPE": 0, "CLASSIFICATION_TYPE": "U", "NORAD_CAT_ID": 66667, "ELEMENT_SET_NO": 999, "REV_AT_EPOCH": 427, "BSTAR": 0.00028572367, "MEAN_MOTION_DOT": 5.682e-05, "MEAN_MOTION_DDOT": 0}, "tle": {"line1": "1 66667U 25276B   25360.91227870  .00005682  00000+0  28572-3 0  9992", "line2": "2 66667  97.4406  72.4414 0002493 196.5026 163.6127 15.17628126  4270"}}, "geometry": {"type": "Point", "coordinates": [71.31532302041957, 11.450486480363232]}}]}